[{"OBJECT_NAME":"STARLINK-34735","OBJECT_ID":"2025-165S","EPOCH":"2026-03-09T18:25:19.548768","MEAN_MOTION":15.05649683,"ECCENTRICITY":6.511e-5,"INCLINATION":97.6029,"RA_OF_ASC_NODE":147.3265,"ARG_OF_PERICENTER":183.845,"MEAN_ANOMALY":176.2772,"EPHEMERIS_TYPE":0,"CLASSIFICATION_TYPE":"U","NORAD_CAT_ID":65072,"ELEMENT_SET_NO":999,"REV_AT_EPOCH":3480,"BSTAR":0.00053399856,"MEAN_MOTION_DOT":7.652e-5,"MEAN_MOTION_DDOT":0},{"OBJECT_NAME":"USA 18","OBJECT_ID":"1986-014H","EPOCH":"2026-03-09T22:05:59.515872","MEAN_MOTION":13.90362984,"ECCENTRICITY":0.07661046,"INCLINATION":63.2943,"RA_OF_ASC_NODE":308.76,"ARG_OF_PERICENTER":110.5722,"MEAN_ANOMALY":257.9185,"EPHEMERIS_TYPE":0,"CLASSIFICATION_TYPE":"U","NORAD_CAT_ID":16631,"ELEMENT_SET_NO":999,"REV_AT_EPOCH":33054,"BSTAR":0.00071829243,"MEAN_MOTION_DOT":0.00012022,"MEAN_MOTION_DDOT":0}]
